start=new Date('2022-02-24T00:00:00.000Z').valueOf();
sats=[{"ECCENTRICITY":"0.00014670","TIME_SYSTEM":"UTC","OBJECT_ID":"2020-006D","FILE":"3317219","INCLINATION":"53.0546","LAUNCH_DATE":"2020-01-29","GP_ID":"196783081","ELEMENT_SET_NO":"999","MEAN_ELEMENT_THEORY":"SGP4","REF_FRAME":"TEME","CENTER_NAME":"EARTH","MEAN_ANOMALY":"293.0517","OBJECT_TYPE":"PAYLOAD","COUNTRY_CODE":"US","EPHEMERIS_TYPE":"0","DECAY_DATE":null,"NORAD_CAT_ID":"45047","OBJECT_NAME":"STARLINK-1131","PERIAPSIS":"546.209","CLASSIFICATION_TYPE":"U","ARG_OF_PERICENTER":"67.0627","REV_AT_EPOCH":"11415","PERIOD":"95.592","BSTAR":"0.00006238900000","SEMIMAJOR_AXIS":"6925.360","EPOCH":"2022-02-23T18:03:25.290720","MEAN_MOTION_DOT":"0.00000648","TLE_LINE1":"1 45047U 20006D   22054.75237605  .00000648  00000-0  62389-4 0  9996","MEAN_MOTION_DDOT":"0.0000000000000","RA_OF_ASC_NODE":"67.8737","MEAN_MOTION":"15.06396386","APOAPSIS":"548.241","TLE_LINE2":"2 45047  53.0546  67.8737 0001467  67.0627 293.0517 15.06396386114155","RCS_SIZE":"LARGE","SITE":"AFETR"},{"MEAN_ELEMENT_THEORY":"SGP4","GP_ID":"196783833","ELEMENT_SET_NO":"999","INCLINATION":"53.0541","FILE":"3317219","LAUNCH_DATE":"2020-01-29","ECCENTRICITY":"0.00014880","OBJECT_ID":"2020-006E","TIME_SYSTEM":"UTC","NORAD_CAT_ID":"45048","OBJECT_NAME":"STARLINK-1134","COUNTRY_CODE":"US","OBJECT_TYPE":"PAYLOAD","EPHEMERIS_TYPE":"0","DECAY_DATE":null,"MEAN_ANOMALY":"288.9687","REF_FRAME":"TEME","CENTER_NAME":"EARTH","PERIOD":"95.593","SEMIMAJOR_AXIS":"6925.381","BSTAR":"0.00001081200000","ARG_OF_PERICENTER":"71.1463","CLASSIFICATION_TYPE":"U","REV_AT_EPOCH":"11415","PERIAPSIS":"546.216","TLE_LINE2":"2 45048  53.0541  67.8302 0001488  71.1463 288.9687 15.06389307114152","APOAPSIS":"548.277","SITE":"AFETR","RCS_SIZE":"LARGE","RA_OF_ASC_NODE":"67.8302","MEAN_MOTION":"15.06389307","TLE_LINE1":"1 45048U 20006E   22054.75975802 -.00000120  00000-0  10812-4 0  9995","MEAN_MOTION_DDOT":"0.0000000000000","EPOCH":"2022-02-23T18:14:03.092928","MEAN_MOTION_DOT":"-0.00000120"},{"DECAY_DATE":null,"COUNTRY_CODE":"US","OBJECT_TYPE":"PAYLOAD","EPHEMERIS_TYPE":"0","OBJECT_NAME":"STARLINK-1135","NORAD_CAT_ID":"45049","CENTER_NAME":"EARTH","REF_FRAME":"TEME","MEAN_ANOMALY":"303.0252","LAUNCH_DATE":"2020-01-29","FILE":"3317219","INCLINATION":"53.0541","GP_ID":"196784584","ELEMENT_SET_NO":"999","MEAN_ELEMENT_THEORY":"SGP4","TIME_SYSTEM":"UTC","OBJECT_ID":"2020-006F","ECCENTRICITY":"0.00020090","MEAN_MOTION":"15.06793645","RA_OF_ASC_NODE":"67.8107","RCS_SIZE":"LARGE","SITE":"AFETR","APOAPSIS":"547.398","TLE_LINE2":"2 45049  53.0541  67.8107 0002009  57.0930 303.0252 15.06793645114159","MEAN_MOTION_DOT":"0.00007013","EPOCH":"2022-02-23T18:15:27.586080","MEAN_MOTION_DDOT":"0.0000000000000","TLE_LINE1":"1 45049U 20006F   22054.76073595  .00007013  00000-0  48410-3 0  9996","BSTAR":"0.00048410000000","SEMIMAJOR_AXIS":"6924.142","PERIOD":"95.567","PERIAPSIS":"544.616","REV_AT_EPOCH":"11415","ARG_OF_PERICENTER":"57.0930","CLASSIFICATION_TYPE":"U"},{"ARG_OF_PERICENTER":"63.0073","CLASSIFICATION_TYPE":"U","REV_AT_EPOCH":"11415","PERIAPSIS":"546.249","PERIOD":"95.591","SEMIMAJOR_AXIS":"6925.318","BSTAR":"0.00044684000000","TLE_LINE1":"1 45050U 20006G   22054.77080319  .00006382  00000-0  44684-3 0  9998","MEAN_MOTION_DDOT":"0.0000000000000","MEAN_MOTION_DOT":"0.00006382","EPOCH":"2022-02-23T18:29:57.395616","TLE_LINE2":"2 45050  53.0531  67.7839 0001348  63.0073 297.1054 15.06410090114154","APOAPSIS":"548.116","SITE":"AFETR","RCS_SIZE":"LARGE","RA_OF_ASC_NODE":"67.7839","MEAN_MOTION":"15.06410090","ECCENTRICITY":"0.00013480","OBJECT_ID":"2020-006G","TIME_SYSTEM":"UTC","MEAN_ELEMENT_THEORY":"SGP4","GP_ID":"196783332","ELEMENT_SET_NO":"999","FILE":"3317219","INCLINATION":"53.0531","LAUNCH_DATE":"2020-01-29","MEAN_ANOMALY":"297.1054","REF_FRAME":"TEME","CENTER_NAME":"EARTH","NORAD_CAT_ID":"45050","OBJECT_NAME":"STARLINK-1140","COUNTRY_CODE":"US","OBJECT_TYPE":"PAYLOAD","EPHEMERIS_TYPE":"0","DECAY_DATE":null},{"DECAY_DATE":null,"COUNTRY_CODE":"US","OBJECT_TYPE":"PAYLOAD","EPHEMERIS_TYPE":"0","OBJECT_NAME":"STARLINK-1141","NORAD_CAT_ID":"45051","CENTER_NAME":"EARTH","REF_FRAME":"TEME","MEAN_ANOMALY":"282.6554","LAUNCH_DATE":"2020-01-29","INCLINATION":"53.0521","FILE":"3317219","GP_ID":"196783582","ELEMENT_SET_NO":"999","MEAN_ELEMENT_THEORY":"SGP4","TIME_SYSTEM":"UTC","OBJECT_ID":"2020-006H","ECCENTRICITY":"0.00016900","MEAN_MOTION":"15.08450154","RA_OF_ASC_NODE":"67.0085","RCS_SIZE":"LARGE","SITE":"AFETR","APOAPSIS":"542.107","TLE_LINE2":"2 45051  53.0521  67.0085 0001690  77.4625 282.6554 15.08450154114164","MEAN_MOTION_DOT":"0.00008883","EPOCH":"2022-02-23T18:05:07.477728","MEAN_MOTION_DDOT":"0.0000000000000","TLE_LINE1":"1 45051U 20006H   22054.75355877  .00008883  00000-0  58155-3 0  9997","BSTAR":"0.00058155000000","SEMIMAJOR_AXIS":"6919.072","PERIOD":"95.462","PERIAPSIS":"539.768","REV_AT_EPOCH":"11416","ARG_OF_PERICENTER":"77.4625","CLASSIFICATION_TYPE":"U"},{"GP_ID":"196739840","ELEMENT_SET_NO":"999","MEAN_ELEMENT_THEORY":"SGP4","FILE":"3316306","INCLINATION":"53.0532","LAUNCH_DATE":"2020-01-29","ECCENTRICITY":"0.00014060","TIME_SYSTEM":"UTC","OBJECT_ID":"2020-006J","NORAD_CAT_ID":"45052","OBJECT_NAME":"STARLINK-1148","OBJECT_TYPE":"PAYLOAD","COUNTRY_CODE":"US","EPHEMERIS_TYPE":"0","DECAY_DATE":null,"MEAN_ANOMALY":"295.8092","REF_FRAME":"TEME","CENTER_NAME":"EARTH","PERIOD":"95.592","BSTAR":"0.00024574000000","SEMIMAJOR_AXIS":"6925.325","CLASSIFICATION_TYPE":"U","ARG_OF_PERICENTER":"64.3042","REV_AT_EPOCH":"11411","PERIAPSIS":"546.216","APOAPSIS":"548.164","TLE_LINE2":"2 45052  53.0532  68.9438 0001406  64.3042 295.8092 15.06407660114112","RCS_SIZE":"LARGE","SITE":"AFETR","RA_OF_ASC_NODE":"68.9438","MEAN_MOTION":"15.06407660","TLE_LINE1":"1 45052U 20006J   22054.51278220  .00003381  00000-0  24574-3 0  9994","MEAN_MOTION_DDOT":"0.0000000000000","EPOCH":"2022-02-23T12:18:24.382080","MEAN_MOTION_DOT":"0.00003381"},{"MEAN_ANOMALY":"230.6179","CENTER_NAME":"EARTH","REF_FRAME":"TEME","OBJECT_NAME":"STARLINK-1155","NORAD_CAT_ID":"45053","DECAY_DATE":null,"EPHEMERIS_TYPE":"0","COUNTRY_CODE":"US","OBJECT_TYPE":"PAYLOAD","TIME_SYSTEM":"UTC","OBJECT_ID":"2020-006K","ECCENTRICITY":"0.00009090","GP_ID":"196784084","ELEMENT_SET_NO":"999","MEAN_ELEMENT_THEORY":"SGP4","LAUNCH_DATE":"2020-01-29","FILE":"3317219","INCLINATION":"53.0010","MEAN_MOTION_DDOT":"0.0000000000000","TLE_LINE1":"1 45053U 20006K   22054.72989547  .00006458  00000-0  41978-3 0  9994","MEAN_MOTION_DOT":"0.00006458","EPOCH":"2022-02-23T17:31:02.968608","RCS_SIZE":"LARGE","SITE":"AFETR","APOAPSIS":"539.393","TLE_LINE2":"2 45053  53.0010  64.2090 0000909 129.4891 230.6179 15.09161106114173","MEAN_MOTION":"15.09161106","RA_OF_ASC_NODE":"64.2090","REV_AT_EPOCH":"11417","CLASSIFICATION_TYPE":"U","ARG_OF_PERICENTER":"129.4891","PERIAPSIS":"538.135","BSTAR":"0.00041978000000","SEMIMAJOR_AXIS":"6916.899","PERIOD":"95.417"},{"LAUNCH_DATE":"2020-01-29","INCLINATION":"53.0561","FILE":"3316306","MEAN_ELEMENT_THEORY":"SGP4","ELEMENT_SET_NO":"999","GP_ID":"196741341","OBJECT_ID":"2020-006L","TIME_SYSTEM":"UTC","ECCENTRICITY":"0.00015620","DECAY_DATE":null,"COUNTRY_CODE":"US","OBJECT_TYPE":"PAYLOAD","EPHEMERIS_TYPE":"0","OBJECT_NAME":"STARLINK-1156","NORAD_CAT_ID":"45054","CENTER_NAME":"EARTH","REF_FRAME":"TEME","MEAN_ANOMALY":"302.8090","SEMIMAJOR_AXIS":"6925.327","BSTAR":"0.00009585300000","PERIOD":"95.592","PERIAPSIS":"546.110","REV_AT_EPOCH":"11409","CLASSIFICATION_TYPE":"U","ARG_OF_PERICENTER":"57.3049","MEAN_MOTION":"15.06407169","RA_OF_ASC_NODE":"69.5729","SITE":"AFETR","RCS_SIZE":"LARGE","TLE_LINE2":"2 45054  53.0561  69.5729 0001562  57.3049 302.8090 15.06407169114096","APOAPSIS":"548.273","MEAN_MOTION_DOT":"0.00001147","EPOCH":"2022-02-23T09:02:01.112928","MEAN_MOTION_DDOT":"0.0000000000000","TLE_LINE1":"1 45054U 20006L   22054.37640177  .00001147  00000-0  95853-4 0  9991"},{"ECCENTRICITY":"0.00013890","OBJECT_ID":"2020-006P","TIME_SYSTEM":"UTC","INCLINATION":"53.0541","FILE":"3317219","LAUNCH_DATE":"2020-01-29","MEAN_ELEMENT_THEORY":"SGP4","ELEMENT_SET_NO":"999","GP_ID":"196783082","REF_FRAME":"TEME","CENTER_NAME":"EARTH","MEAN_ANOMALY":"288.7702","OBJECT_TYPE":"PAYLOAD","COUNTRY_CODE":"US","EPHEMERIS_TYPE":"0","DECAY_DATE":null,"NORAD_CAT_ID":"45057","OBJECT_NAME":"STARLINK-1159","PERIAPSIS":"546.254","ARG_OF_PERICENTER":"71.3438","CLASSIFICATION_TYPE":"U","REV_AT_EPOCH":"11415","PERIOD":"95.592","SEMIMAJOR_AXIS":"6925.351","BSTAR":"0.00000441930000","EPOCH":"2022-02-23T17:20:57.182784","MEAN_MOTION_DOT":"-0.00000216","TLE_LINE1":"1 45057U 20006P   22054.72288406 -.00000216  00000-0  44193-5 0  9995","MEAN_MOTION_DDOT":"0.0000000000000","RA_OF_ASC_NODE":"67.9898","MEAN_MOTION":"15.06399146","TLE_LINE2":"2 45057  53.0541  67.9898 0001389  71.3438 288.7702 15.06399146114155","APOAPSIS":"548.178","SITE":"AFETR","RCS_SIZE":"LARGE"},{"CLASSIFICATION_TYPE":"U","ARG_OF_PERICENTER":"65.8136","REV_AT_EPOCH":"11412","PERIAPSIS":"546.198","PERIOD":"95.592","SEMIMAJOR_AXIS":"6925.348","BSTAR":"0.00001084400000","TLE_LINE1":"1 45058U 20006Q   22054.51647748 -.00000120  00000-0  10844-4 0  9990","MEAN_MOTION_DDOT":"0.0000000000000","EPOCH":"2022-02-23T12:23:43.654272","MEAN_MOTION_DOT":"-0.00000120","TLE_LINE2":"2 45058  53.0533  68.9287 0001466  65.8136 294.3006 15.06400088114124","APOAPSIS":"548.229","SITE":"AFETR","RCS_SIZE":"LARGE","RA_OF_ASC_NODE":"68.9287","MEAN_MOTION":"15.06400088","ECCENTRICITY":"0.00014660","OBJECT_ID":"2020-006Q","TIME_SYSTEM":"UTC","MEAN_ELEMENT_THEORY":"SGP4","GP_ID":"196740340","ELEMENT_SET_NO":"999","INCLINATION":"53.0533","FILE":"3316306","LAUNCH_DATE":"2020-01-29","MEAN_ANOMALY":"294.3006","REF_FRAME":"TEME","CENTER_NAME":"EARTH","NORAD_CAT_ID":"45058","OBJECT_NAME":"STARLINK-1162","OBJECT_TYPE":"PAYLOAD","COUNTRY_CODE":"US","EPHEMERIS_TYPE":"0","DECAY_DATE":null}];
